[{"OBJECT_NAME":"STARLINK-35387","OBJECT_ID":"2025-224AD","EPOCH":"2026-03-09T23:24:46.997280","MEAN_MOTION":15.30207114,"ECCENTRICITY":0.00010117,"INCLINATION":53.1607,"RA_OF_ASC_NODE":10.3269,"ARG_OF_PERICENTER":99.2822,"MEAN_ANOMALY":260.8294,"EPHEMERIS_TYPE":0,"CLASSIFICATION_TYPE":"U","NORAD_CAT_ID":65909,"ELEMENT_SET_NO":999,"REV_AT_EPOCH":2486,"BSTAR":0.0010077245,"MEAN_MOTION_DOT":0.00029612,"MEAN_MOTION_DDOT":0},{"OBJECT_NAME":"OV1-2","OBJECT_ID":"1965-078A","EPOCH":"2026-03-09T03:01:50.580768","MEAN_MOTION":13.00501958,"ECCENTRICITY":0.1131046,"INCLINATION":144.2289,"RA_OF_ASC_NODE":293.9642,"ARG_OF_PERICENTER":92.8937,"MEAN_ANOMALY":280.1442,"EPHEMERIS_TYPE":0,"CLASSIFICATION_TYPE":"U","NORAD_CAT_ID":1613,"ELEMENT_SET_NO":999,"REV_AT_EPOCH":70168,"BSTAR":0.00044752779,"MEAN_MOTION_DOT":4.816e-5,"MEAN_MOTION_DDOT":0}]
